HAWK-5A                 
1 52757U 22057AB  26190.80657756  .00013886  00000+0  23078-3 0  9992
2 52757  97.6619 351.1320 0003885 359.6298   0.4951 15.52195712229850
HAWK-6B                 
1 55324U 23011A   26190.54312988  .00002893  00000+0  12815-3 0  9995
2 55324  40.4968 221.6591 0003304 209.9422 150.1199 15.23122243191255
HAWK-6C                 
1 55326U 23011C   26190.54250683  .00003186  00000+0  14027-3 0  9993
2 55326  40.4958 218.4978 0003774 199.1925 160.8742 15.23123597191264
HAWK-6A                 
1 55327U 23011D   26190.54254032  .00002857  00000+0  12666-3 0  9997
2 55327  40.4966 220.1247 0003302 196.9999 163.0700 15.23123028191264
HAWK-7A                 
1 56191U 23054P   26190.71124112  .00003861  00000+0  14579-3 0  9999
2 56191  97.2676  77.4761 0002032 358.9659   1.1576 15.27595507180460
HAWK-7B                 
1 56193U 23054R   26190.71116552  .00002974  00000+0  11290-3 0  9991
2 56193  97.2702  75.7478 0001944  26.8388 333.2952 15.27594208180463
HAWK-7C                 
1 56200U 23054Y   26190.58004362  .00003900  00000+0  14721-3 0  9992
2 56200  97.2679  76.3818 0001571  13.0246 347.1034 15.27596142180449
